{
  "type": "FeatureCollection",
  "features": [
    {
      "type": "Feature",
      "properties": {
        "norad_id": 44334,
        "name": "EUTELSAT 7C",
        "group": "eutelsat",
        "lat": -0.02346336037737446,
        "lon": 35.1261456984266,
        "alt_km": 35799.04664153358,
        "timestamp": "2025-12-09T20:37:08.953380+00:00",
        "meta_object_name": "EUTELSAT 7C",
        "meta_object_id": "2019-034B",
        "meta_epoch": "2025-12-09T13:36:22.491072",
        "meta_mean_motion": 1.00270697,
        "meta_eccentricity": 0.00033717,
        "meta_inclination": 0.0732,
        "meta_ra_of_asc_node": 179.2397,
        "meta_arg_of_pericenter": 63.0249,
        "meta_mean_anomaly": 47.3664,
        "meta_ephemeris_type": 0,
        "meta_classification_type": "U",
        "meta_norad_cat_id": 44334,
        "meta_element_set_no": 999,
        "meta_rev_at_epoch": 493,
        "meta_bstar": 0,
        "meta_mean_motion_dot": 5e-07,
        "meta_mean_motion_ddot": 0,
        "tle_line1": "1 44334U 19034B   25343.56692698  .00000050  00000+0  00000+0 0  9996",
        "tle_line2": "2 44334   0.0732 179.2397 0003371  63.0249  47.3664  1.00270697  4936"
      },
      "geometry": {
        "type": "Point",
        "coordinates": [
          35.1261456984266,
          -0.02346336037737446
        ]
      }
    },
    {
      "type": "Feature",
      "properties": {
        "norad_id": 44624,
        "name": "EUTELSAT 5 WEST B",
        "group": "eutelsat",
        "lat": 0.055998807291169454,
        "lon": 23.160124984386382,
        "alt_km": 35794.59015071577,
        "timestamp": "2025-12-09T20:37:08.953392+00:00",
        "meta_object_name": "EUTELSAT 5 WEST B",
        "meta_object_id": "2019-067A",
        "meta_epoch": "2025-12-09T04:59:20.915808",
        "meta_mean_motion": 1.00271075,
        "meta_eccentricity": 0.0003516,
        "meta_inclination": 0.0644,
        "meta_ra_of_asc_node": 341.3724,
        "meta_arg_of_pericenter": 277.7318,
        "meta_mean_anomaly": 248.9352,
        "meta_ephemeris_type": 0,
        "meta_classification_type": "U",
        "meta_norad_cat_id": 44624,
        "meta_element_set_no": 999,
        "meta_rev_at_epoch": 2253,
        "meta_bstar": 0,
        "meta_mean_motion_dot": -4e-07,
        "meta_mean_motion_ddot": 0,
        "tle_line1": "1 44624U 19067A   25343.20788097 -.00000040  00000+0  00000+0 0  9994",
        "tle_line2": "2 44624   0.0644 341.3724 0003516 277.7318 248.9352  1.00271075 22538"
      },
      "geometry": {
        "type": "Point",
        "coordinates": [
          23.160124984386382,
          0.055998807291169454
        ]
      }
    },
    {
      "type": "Feature",
      "properties": {
        "norad_id": 45027,
        "name": "EUTELSAT KONNECT",
        "group": "eutelsat",
        "lat": -0.04263835252815186,
        "lon": 35.3340171858848,
        "alt_km": 35789.45606947548,
        "timestamp": "2025-12-09T20:37:08.953404+00:00",
        "meta_object_name": "EUTELSAT KONNECT",
        "meta_object_id": "2020-005B",
        "meta_epoch": "2025-12-09T13:36:22.491072",
        "meta_mean_motion": 1.00268326,
        "meta_eccentricity": 0.00017241,
        "meta_inclination": 0.0708,
        "meta_ra_of_asc_node": 96.4428,
        "meta_arg_of_pericenter": 189.6907,
        "meta_mean_anomaly": 3.7069,
        "meta_ephemeris_type": 0,
        "meta_classification_type": "U",
        "meta_norad_cat_id": 45027,
        "meta_element_set_no": 999,
        "meta_rev_at_epoch": 2243,
        "meta_bstar": 0,
        "meta_mean_motion_dot": 5.1e-07,
        "meta_mean_motion_ddot": 0,
        "tle_line1": "1 45027U 20005B   25343.56692698  .00000051  00000+0  00000+0 0  9997",
        "tle_line2": "2 45027   0.0708  96.4428 0001724 189.6907   3.7069  1.00268326 22436"
      },
      "geometry": {
        "type": "Point",
        "coordinates": [
          35.3340171858848,
          -0.04263835252815186
        ]
      }
    },
    {
      "type": "Feature",
      "properties": {
        "norad_id": 49056,
        "name": "EUTELSAT QUANTUM",
        "group": "eutelsat",
        "lat": 0.03095532641348254,
        "lon": 75.83695702140882,
        "alt_km": 35801.52164726329,
        "timestamp": "2025-12-09T20:37:08.953416+00:00",
        "meta_object_name": "EUTELSAT QUANTUM",
        "meta_object_id": "2021-069B",
        "meta_epoch": "2025-12-09T13:47:58.879392",
        "meta_mean_motion": 1.00270948,
        "meta_eccentricity": 0.00037417,
        "meta_inclination": 0.0145,
        "meta_ra_of_asc_node": 12.6689,
        "meta_arg_of_pericenter": 259.0075,
        "meta_mean_anomaly": 61.5808,
        "meta_ephemeris_type": 0,
        "meta_classification_type": "U",
        "meta_norad_cat_id": 49056,
        "meta_element_set_no": 999,
        "meta_rev_at_epoch": 1602,
        "meta_bstar": 0,
        "meta_mean_motion_dot": 1.28e-06,
        "meta_mean_motion_ddot": 0,
        "tle_line1": "1 49056U 21069B   25343.57498703  .00000128  00000+0  00000+0 0  9991",
        "tle_line2": "2 49056   0.0145  12.6689 0003741 259.0075  61.5808  1.00270948 16029"
      },
      "geometry": {
        "type": "Point",
        "coordinates": [
          75.83695702140882,
          0.03095532641348254
        ]
      }
    },
    {
      "type": "Feature",
      "properties": {
        "norad_id": 53765,
        "name": "EUTELSAT KONNECT VHTS",
        "group": "eutelsat",
        "lat": -0.04135289273025949,
        "lon": 30.847474135210316,
        "alt_km": 35796.09612686276,
        "timestamp": "2025-12-09T20:37:08.953427+00:00",
        "meta_object_name": "EUTELSAT KONNECT VHTS",
        "meta_object_id": "2022-110A",
        "meta_epoch": "2025-12-09T13:35:00.121632",
        "meta_mean_motion": 1.00270861,
        "meta_eccentricity": 0.00026005,
        "meta_inclination": 0.0638,
        "meta_ra_of_asc_node": 102.0206,
        "meta_arg_of_pericenter": 136.0408,
        "meta_mean_anomaly": 46.9506,
        "meta_ephemeris_type": 0,
        "meta_classification_type": "U",
        "meta_norad_cat_id": 53765,
        "meta_element_set_no": 999,
        "meta_rev_at_epoch": 492,
        "meta_bstar": 0,
        "meta_mean_motion_dot": 1.9e-07,
        "meta_mean_motion_ddot": 0,
        "tle_line1": "1 53765U 22110A   25343.56597363  .00000019  00000+0  00000+0 0  9991",
        "tle_line2": "2 53765   0.0638 102.0206 0002600 136.0408  46.9506  1.00270861  4926"
      },
      "geometry": {
        "type": "Point",
        "coordinates": [
          30.847474135210316,
          -0.04135289273025949
        ]
      }
    },
    {
      "type": "Feature",
      "properties": {
        "norad_id": 54048,
        "name": "EUTELSAT HOTBIRD 13F",
        "group": "eutelsat",
        "lat": 0.059903984414410825,
        "lon": 41.16383925379839,
        "alt_km": 35779.97749293425,
        "timestamp": "2025-12-09T20:37:08.953439+00:00",
        "meta_object_name": "EUTELSAT HOTBIRD 13F",
        "meta_object_id": "2022-134A",
        "meta_epoch": "2025-12-09T01:39:02.259360",
        "meta_mean_motion": 1.00271707,
        "meta_eccentricity": 0.0002159,
        "meta_inclination": 0.0489,
        "meta_ra_of_asc_node": 292.5872,
        "meta_arg_of_pericenter": 60.3329,
        "meta_mean_anomaly": 122.9214,
        "meta_ephemeris_type": 0,
        "meta_classification_type": "U",
        "meta_norad_cat_id": 54048,
        "meta_element_set_no": 999,
        "meta_rev_at_epoch": 1147,
        "meta_bstar": 0,
        "meta_mean_motion_dot": 8.9e-07,
        "meta_mean_motion_ddot": 0,
        "tle_line1": "1 54048U 22134A   25343.06877615  .00000089  00000+0  00000+0 0  9995",
        "tle_line2": "2 54048   0.0489 292.5872 0002159  60.3329 122.9214  1.00271707 11478"
      },
      "geometry": {
        "type": "Point",
        "coordinates": [
          41.16383925379839,
          0.059903984414410825
        ]
      }
    },
    {
      "type": "Feature",
      "properties": {
        "norad_id": 54225,
        "name": "EUTELSAT HOTBIRD 13G",
        "group": "eutelsat",
        "lat": 0.029008615252896053,
        "lon": 41.10500622079191,
        "alt_km": 35792.51270314041,
        "timestamp": "2025-12-09T20:37:08.953451+00:00",
        "meta_object_name": "EUTELSAT HOTBIRD 13G",
        "meta_object_id": "2022-146A",
        "meta_epoch": "2025-12-09T00:10:38.547840",
        "meta_mean_motion": 1.00269396,
        "meta_eccentricity": 0.00016652,
        "meta_inclination": 0.0487,
        "meta_ra_of_asc_node": 236.9876,
        "meta_arg_of_pericenter": 310.6292,
        "meta_mean_anomaly": 266.0423,
        "meta_ephemeris_type": 0,
        "meta_classification_type": "U",
        "meta_norad_cat_id": 54225,
        "meta_element_set_no": 999,
        "meta_rev_at_epoch": 555,
        "meta_bstar": 0,
        "meta_mean_motion_dot": 8.9e-07,
        "meta_mean_motion_ddot": 0,
        "tle_line1": "1 54225U 22146A   25343.00739060  .00000089  00000+0  00000+0 0  9990",
        "tle_line2": "2 54225   0.0487 236.9876 0001665 310.6292 266.0423  1.00269396  5555"
      },
      "geometry": {
        "type": "Point",
        "coordinates": [
          41.10500622079191,
          0.029008615252896053
        ]
      }
    }
  ]
}